*******************************************************************************
Ephemeris / WWW_USER Mon Jul 15 19:04:31 2024 Pasadena, USA      / Horizons    
*******************************************************************************
Target body name: (2018 RD5)                      {source: JPL#11}
Center body name: Earth (399)                     {source: DE441}
Center-site name: Gemini South Obs., Cerro Pachon
*******************************************************************************
Start time      : A.D. 2019-Jan-09 23:58:00.0000 UT      
Stop  time      : A.D. 2019-Jan-10 09:42:00.0000 UT      
Step-size       : 1 minutes
*******************************************************************************
Target pole/equ : undefined
Target radii    : undefined                                                    
Center geodetic : 289.2634, -30.2406227, 2.71233  {E-lon(deg),Lat(deg),Alt(km)}
Center cylindric: 289.2634,5517.21435,-3194.81213 {E-lon(deg),Dxy(km),Dz(km)}
Center pole/equ : ITRF93                          {East-longitude positive}
Center radii    : 6378.137, 6378.137, 6356.752 km {Equator_a, b, pole_c}       
Target primary  : Sun
Vis. interferer : MOON (R_eq= 1737.400) km        {source: DE441}
Rel. light bend : Sun                             {source: DE441}
Rel. lght bnd GM: 1.3271E+11 km^3/s^2                                          
Small-body perts: Yes                             {source: SB441-N16}
Atmos refraction: NO (AIRLESS)
RA format       : HMS
Time format     : CAL 
Calendar mode   : Mixed Julian/Gregorian
RTS-only print  : NO       
EOP file        : eop.240715.p241008                                           
EOP coverage    : DATA-BASED 1962-JAN-20 TO 2024-JUL-15. PREDICTS-> 2024-OCT-07
Units conversion: 1 au= 149597870.700 km, c= 299792.458 km/s, 1 day= 86400.0 s 
Table cut-offs 1: Elevation (-90.0deg=NO ),Airmass (>38.000=NO), Daylight (YES)
Table cut-offs 2: Solar elongation (  0.0,180.0=NO ),Local Hour Angle( 0.0=NO )
Table cut-offs 3: RA/DEC angular rate (     0.0=NO )                           
*******************************************************************************
Initial IAU76/J2000 heliocentric ecliptic osculating elements (au, days, deg.):
  EPOCH=  2458378.5 ! 2018-Sep-17.00 (TDB)         Residual RMS= .55339        
   EC= .2891632988519429   QR= 1.009650912138325   TP= 2458360.6433297051      
   OM= 171.0145363394364   W=  163.7983400129293   IN= 8.474307805886117       
  Equivalent ICRF heliocentric cartesian coordinates (au, au/d):
   X= 1.017757009008053E+00  Y=-8.967367621791844E-02  Z=-4.840656937149759E-02
  VX= 3.309922676318766E-03 VY= 1.832358809606965E-02 VZ= 4.854018792897502E-03
Asteroid physical parameters (km, seconds, rotational period in hours):        
   GM= n.a.                RAD= n.a.               ROTPER= n.a.                
   H= 25.9                 G= .150                 B-V= n.a.                   
                           ALBEDO= n.a.            STYP= n.a.                  
*******************************************************************************
 Date__(UT)__HR:MN     R.A._________(ICRF)_________DEC
******************************************************
$$SOE
 2019-Jan-10 04:04     03 24 17.071785 +00 20 00.35716
 2019-Jan-10 04:05     03 24 17.121576 +00 20 01.14927
 2019-Jan-10 04:06     03 24 17.171377 +00 20 01.94139
 2019-Jan-10 04:07     03 24 17.221190 +00 20 02.73349
 2019-Jan-10 04:08     03 24 17.271013 +00 20 03.52560
 2019-Jan-10 04:09     03 24 17.320848 +00 20 04.31769
 2019-Jan-10 04:10     03 24 17.370694 +00 20 05.10978
 2019-Jan-10 04:11     03 24 17.420551 +00 20 05.90187
 2019-Jan-10 04:12     03 24 17.470420 +00 20 06.69395
 2019-Jan-10 04:13     03 24 17.520299 +00 20 07.48602
 2019-Jan-10 04:14     03 24 17.570191 +00 20 08.27809
 2019-Jan-10 04:15     03 24 17.620093 +00 20 09.07015
 2019-Jan-10 04:16     03 24 17.670007 +00 20 09.86221
 2019-Jan-10 04:17     03 24 17.719932 +00 20 10.65426
 2019-Jan-10 04:18     03 24 17.769869 +00 20 11.44631
 2019-Jan-10 04:19     03 24 17.819818 +00 20 12.23835
 2019-Jan-10 04:20     03 24 17.869778 +00 20 13.03038
 2019-Jan-10 04:21     03 24 17.919749 +00 20 13.82241
 2019-Jan-10 04:22     03 24 17.969733 +00 20 14.61444
 2019-Jan-10 04:23     03 24 18.019728 +00 20 15.40645
 2019-Jan-10 04:24     03 24 18.069734 +00 20 16.19847
 2019-Jan-10 04:25     03 24 18.119753 +00 20 16.99047
 2019-Jan-10 04:26     03 24 18.169783 +00 20 17.78248
 2019-Jan-10 04:27     03 24 18.219825 +00 20 18.57447
 2019-Jan-10 04:28     03 24 18.269879 +00 20 19.36646
 2019-Jan-10 04:29     03 24 18.319945 +00 20 20.15845
 2019-Jan-10 04:30     03 24 18.370023 +00 20 20.95043
 2019-Jan-10 04:31     03 24 18.420113 +00 20 21.74240
 2019-Jan-10 04:32     03 24 18.470214 +00 20 22.53437
 2019-Jan-10 04:33     03 24 18.520328 +00 20 23.32633
 2019-Jan-10 04:34     03 24 18.570454 +00 20 24.11829
 2019-Jan-10 04:35     03 24 18.620592 +00 20 24.91024
 2019-Jan-10 04:36     03 24 18.670742 +00 20 25.70219
 2019-Jan-10 04:37     03 24 18.720904 +00 20 26.49413
 2019-Jan-10 04:38     03 24 18.771079 +00 20 27.28607
 2019-Jan-10 04:39     03 24 18.821266 +00 20 28.07800
 2019-Jan-10 04:40     03 24 18.871465 +00 20 28.86992
 2019-Jan-10 04:41     03 24 18.921676 +00 20 29.66184
 2019-Jan-10 04:42     03 24 18.971900 +00 20 30.45376
 2019-Jan-10 04:43     03 24 19.022136 +00 20 31.24566
 2019-Jan-10 04:44     03 24 19.072384 +00 20 32.03757
 2019-Jan-10 04:45     03 24 19.122645 +00 20 32.82947
 2019-Jan-10 04:46     03 24 19.172918 +00 20 33.62136
 2019-Jan-10 04:47     03 24 19.223204 +00 20 34.41324
 2019-Jan-10 04:48     03 24 19.273503 +00 20 35.20513
 2019-Jan-10 04:49     03 24 19.323813 +00 20 35.99700
 2019-Jan-10 04:50     03 24 19.374137 +00 20 36.78887
 2019-Jan-10 04:51     03 24 19.424473 +00 20 37.58074
 2019-Jan-10 04:52     03 24 19.474822 +00 20 38.37260
 2019-Jan-10 04:53     03 24 19.525183 +00 20 39.16445
 2019-Jan-10 04:54     03 24 19.575557 +00 20 39.95630
 2019-Jan-10 04:55     03 24 19.625944 +00 20 40.74815
 2019-Jan-10 04:56     03 24 19.676344 +00 20 41.53998
 2019-Jan-10 04:57     03 24 19.726756 +00 20 42.33182
 2019-Jan-10 04:58     03 24 19.777182 +00 20 43.12364
 2019-Jan-10 04:59     03 24 19.827620 +00 20 43.91547
 2019-Jan-10 05:00     03 24 19.878071 +00 20 44.70728
 2019-Jan-10 05:01     03 24 19.928535 +00 20 45.49910
 2019-Jan-10 05:02     03 24 19.979011 +00 20 46.29090
 2019-Jan-10 05:03     03 24 20.029501 +00 20 47.08270
 2019-Jan-10 05:04     03 24 20.080004 +00 20 47.87450
 2019-Jan-10 05:05     03 24 20.130520 +00 20 48.66629
 2019-Jan-10 05:06     03 24 20.181049 +00 20 49.45807
 2019-Jan-10 05:07     03 24 20.231591 +00 20 50.24985
 2019-Jan-10 05:08     03 24 20.282146 +00 20 51.04163
 2019-Jan-10 05:09     03 24 20.332714 +00 20 51.83340
 2019-Jan-10 05:10     03 24 20.383295 +00 20 52.62516
 2019-Jan-10 05:11     03 24 20.433889 +00 20 53.41692
 2019-Jan-10 05:12     03 24 20.484497 +00 20 54.20867
 2019-Jan-10 05:13     03 24 20.535118 +00 20 55.00042
 2019-Jan-10 05:14     03 24 20.585752 +00 20 55.79216
 2019-Jan-10 05:15     03 24 20.636399 +00 20 56.58390
 2019-Jan-10 05:16     03 24 20.687060 +00 20 57.37563
 2019-Jan-10 05:17     03 24 20.737734 +00 20 58.16736
 2019-Jan-10 05:18     03 24 20.788421 +00 20 58.95908
 2019-Jan-10 05:19     03 24 20.839122 +00 20 59.75080
 2019-Jan-10 05:20     03 24 20.889836 +00 21 00.54251
 2019-Jan-10 05:21     03 24 20.940564 +00 21 01.33421
 2019-Jan-10 05:22     03 24 20.991305 +00 21 02.12591
 2019-Jan-10 05:23     03 24 21.042059 +00 21 02.91761
 2019-Jan-10 05:24     03 24 21.092827 +00 21 03.70930
 2019-Jan-10 05:25     03 24 21.143608 +00 21 04.50098
 2019-Jan-10 05:26     03 24 21.194403 +00 21 05.29266
 2019-Jan-10 05:27     03 24 21.245212 +00 21 06.08434
 2019-Jan-10 05:28     03 24 21.296034 +00 21 06.87601
 2019-Jan-10 05:29     03 24 21.346870 +00 21 07.66767
 2019-Jan-10 05:30     03 24 21.397719 +00 21 08.45933
 2019-Jan-10 05:31     03 24 21.448582 +00 21 09.25099
 2019-Jan-10 05:32     03 24 21.499458 +00 21 10.04263
 2019-Jan-10 05:33     03 24 21.550348 +00 21 10.83428
 2019-Jan-10 05:34     03 24 21.601252 +00 21 11.62592
 2019-Jan-10 05:35     03 24 21.652170 +00 21 12.41755
 2019-Jan-10 05:36     03 24 21.703101 +00 21 13.20918
 2019-Jan-10 05:37     03 24 21.754046 +00 21 14.00080
 2019-Jan-10 05:38     03 24 21.805005 +00 21 14.79242
 2019-Jan-10 05:39     03 24 21.855978 +00 21 15.58403
 2019-Jan-10 05:40     03 24 21.906964 +00 21 16.37564
 2019-Jan-10 05:41     03 24 21.957964 +00 21 17.16724
 2019-Jan-10 05:42     03 24 22.008979 +00 21 17.95884
 2019-Jan-10 05:43     03 24 22.060007 +00 21 18.75043
 2019-Jan-10 05:44     03 24 22.111048 +00 21 19.54202
 2019-Jan-10 05:45     03 24 22.162104 +00 21 20.33360
 2019-Jan-10 05:46     03 24 22.213174 +00 21 21.12517
 2019-Jan-10 05:47     03 24 22.264257 +00 21 21.91675
 2019-Jan-10 05:48     03 24 22.315355 +00 21 22.70831
 2019-Jan-10 05:49     03 24 22.366466 +00 21 23.49987
 2019-Jan-10 05:50     03 24 22.417592 +00 21 24.29143
 2019-Jan-10 05:51     03 24 22.468731 +00 21 25.08298
 2019-Jan-10 05:52     03 24 22.519885 +00 21 25.87453
 2019-Jan-10 05:53     03 24 22.571052 +00 21 26.66607
 2019-Jan-10 05:54     03 24 22.622233 +00 21 27.45761
 2019-Jan-10 05:55     03 24 22.673429 +00 21 28.24914
 2019-Jan-10 05:56     03 24 22.724639 +00 21 29.04066
 2019-Jan-10 05:57     03 24 22.775862 +00 21 29.83219
 2019-Jan-10 05:58     03 24 22.827100 +00 21 30.62370
 2019-Jan-10 05:59     03 24 22.878352 +00 21 31.41521
 2019-Jan-10 06:00     03 24 22.929618 +00 21 32.20672
 2019-Jan-10 06:01     03 24 22.980898 +00 21 32.99822
 2019-Jan-10 06:02     03 24 23.032192 +00 21 33.78972
 2019-Jan-10 06:03     03 24 23.083501 +00 21 34.58121
 2019-Jan-10 06:04     03 24 23.134823 +00 21 35.37269
 2019-Jan-10 06:05     03 24 23.186160 +00 21 36.16418
 2019-Jan-10 06:06     03 24 23.237511 +00 21 36.95565
